{
  "63186": {
    "noradId": "63186",
    "tle": [
      "1 63186C 25048D   26057.16437500  .00007493  00000+0  58208-4 0   573",
      "2 63186  43.0003  29.0104 0001328 266.8863  53.7703 15.70828617    16"
    ]
  },
  "63187": {
    "noradId": "63187",
    "tle": [
      "1 63187C 25048E   26057.16437500  .00004565  00000+0  35471-4 0   578",
      "2 63187  43.0003  29.7578 0001605 272.0485 108.0066 15.70824748    13"
    ]
  },
  "63188": {
    "noradId": "63188",
    "tle": [
      "1 63188C 25048F   26057.16229167  .00005597  00000+0  43476-4 0   577",
      "2 63188  43.0003  29.4708 0001536 258.7575 229.7378 15.70830169    11"
    ]
  },
  "63189": {
    "noradId": "63189",
    "tle": [
      "1 63189C 25048G   26057.16298611 -.00029581  00000+0 -22970-3 0   574",
      "2 63189  43.0003  29.3162 0001516 257.3965 295.1040 15.70874388    15"
    ]
  },
  "63190": {
    "noradId": "63190",
    "tle": [
      "1 63190C 25048H   26057.16506944  .00015617  00000+0  12132-3 0   579",
      "2 63190  43.0004  29.7655 0001352 269.1340 109.6853 15.70820108    17"
    ]
  },
  "63191": {
    "noradId": "63191",
    "tle": [
      "1 63191C 25048J   26057.16159722  .00010153  00000+0  78884-4 0   575",
      "2 63191  43.0004  29.2471 0001725 255.9790 318.7810 15.70820309    14"
    ]
  },
  "63192": {
    "noradId": "63192",
    "tle": [
      "1 63192C 25048K   26057.16090278  .00005095  00000+0  39580-4 0   575",
      "2 63192  43.0003  29.4026 0001498 257.8277 252.8724 15.70829421    16"
    ]
  },
  "63193": {
    "noradId": "63193",
    "tle": [
      "1 63193C 25048L   26057.16437500 -.00010467  00000+0 -81307-4 0   574",
      "2 63193  43.0004  29.0817 0001516 260.9910  29.6099 15.70845474    13"
    ]
  },
  "63194": {
    "noradId": "63194",
    "tle": [
      "1 63194C 25048M   26057.16437500 -.00020585  00000+0 -15980-3 0   570",
      "2 63194  43.0002  29.5314 0001441 263.3146 206.8689 15.70871482    16"
    ]
  },
  "63195": {
    "noradId": "63195",
    "tle": [
      "1 63195C 25048N   26057.16645833  .00054772  00000+0  42605-3 0   578",
      "2 63195  43.0004  29.8163 0001800 259.6989 102.1019 15.70748377    17"
    ]
  },
  "63196": {
    "noradId": "63196",
    "tle": [
      "1 63196C 25048P   26057.13590278 -.00026064  00000+0 -94368-3 0   576",
      "2 63196  42.9996 154.5762 0001457 267.6838 299.6034 15.27616314    13"
    ]
  },
  "63197": {
    "noradId": "63197",
    "tle": [
      "1 63197C 25048Q   26057.13104167 -.00023924  00000+0 -86651-3 0   573",
      "2 63197  42.9998 150.7601 0001483 266.8860  52.5062 15.27602359    12"
    ]
  },
  "63198": {
    "noradId": "63198",
    "tle": [
      "1 63198C 25048R   26057.13451389 -.00025055  00000+0 -90727-3 0   571",
      "2 63198  43.0015 150.2337 0001494 266.2582 284.4977 15.27610940    19"
    ]
  },
  "63199": {
    "noradId": "63199",
    "tle": [
      "1 63199C 25048S   26057.13520833 -.00007542  00000+0 -27341-3 0   576",
      "2 63199  43.0014 150.5499 0001428 264.6648 155.5737 15.27556761    15"
    ]
  },
  "63200": {
    "noradId": "63200",
    "tle": [
      "1 63200C 25048T   26057.12965278 -.00017955  00000+0 -65056-3 0   578",
      "2 63200  43.0022 150.3438 0001592 264.2483 224.4005 15.27583894    14"
    ]
  },
  "63201": {
    "noradId": "63201",
    "tle": [
      "1 63201C 25048U   26057.13243056 -.00013640  00000+0 -49426-3 0   573",
      "2 63201  43.0008 150.6144 0001545 263.5929 120.0853 15.27576648    12"
    ]
  },
  "63202": {
    "noradId": "63202",
    "tle": [
      "1 63202C 25048V   26057.13034722  .00043161  00000+0  15640-2 0   571",
      "2 63202  42.9994 150.9186 0001284 270.8669 340.9892 15.27520157    16"
    ]
  },
  "63203": {
    "noradId": "63203",
    "tle": [
      "1 63203C 25048W   26057.13381944 -.00065782  00000+0 -23806-2 0   571",
      "2 63203  42.9997 150.8408 0002095 268.4103  23.7917 15.27669817    14"
    ]
  },
  "63265": {
    "noradId": "63265",
    "tle": [
      "1 63265C 25053A   26057.16437500 -.00000757  00000+0 -58836-5 0   573",
      "2 63265  43.0004 181.6660 0001611 265.6759 224.3195 15.70828729    18"
    ]
  },
  "63266": {
    "noradId": "63266",
    "tle": [
      "1 63266C 25053B   26057.16645833  .00031191  00000+0  24229-3 0   575",
      "2 63266  43.0003 181.5783 0001655 273.5044 258.2921 15.70804087    10"
    ]
  },
  "63267": {
    "noradId": "63267",
    "tle": [
      "1 63267C 25053C   26057.16298611 -.00022598  00000+0 -17567-3 0   574",
      "2 63267  43.0005 181.9101 0001616 266.6645 120.1286 15.70840121    18"
    ]
  },
  "63268": {
    "noradId": "63268",
    "tle": [
      "1 63268C 25053D   26057.16645833 -.00013628  00000+0 -10592-3 0   572",
      "2 63268  43.0005 181.3535 0001558 277.3553 344.6854 15.70835263    11"
    ]
  },
  "63269": {
    "noradId": "63269",
    "tle": [
      "1 63269C 25053E   26057.16576389 -.00011048  00000+0 -85875-4 0   573",
      "2 63269  43.0004 181.4314 0001371 271.8710 316.1828 15.70831700    11"
    ]
  },
  "63270": {
    "noradId": "63270",
    "tle": [
      "1 63270C 25053F   26057.16090278 -.00033990  00000+0 -26405-3 0   576",
      "2 63270  43.0005 181.9126 0001810 275.8468 104.2645 15.70867258    12"
    ]
  },
  "63271": {
    "noradId": "63271",
    "tle": [
      "1 63271C 25053G   26057.16020833 -.00012718  00000+0 -98843-4 0   578",
      "2 63271  43.0004 182.1409 0001775 274.1339  11.9072 15.70834719    12"
    ]
  },
  "63272": {
    "noradId": "63272",
    "tle": [
      "1 63272C 25053H   26057.16576389 -.00014138  00000+0 -10988-3 0   572",
      "2 63272  43.0005 181.7330 0001495 267.4222 200.3703 15.70837117    17"
    ]
  },
  "63273": {
    "noradId": "63273",
    "tle": [
      "1 63273C 25053J   26057.16298611 -.00014152  00000+0 -11002-3 0   576",
      "2 63273  43.0004 181.3007 0001485 275.9996 356.4538 15.70830339    13"
    ]
  },
  "63274": {
    "noradId": "63274",
    "tle": [
      "1 63274C 25053K   26057.16645833 -.00013863  00000+0 -10774-3 0   572",
      "2 63274  43.0006 181.8060 0001773 273.7895 167.8719 15.70837042    17"
    ]
  },
  "63275": {
    "noradId": "63275",
    "tle": [
      "1 63275C 25053L   26057.16298611 -.00017474  00000+0 -13582-3 0   573",
      "2 63275  43.0002 181.5277 0001567 266.3499 275.9021 15.70838419    16"
    ]
  },
  "63276": {
    "noradId": "63276",
    "tle": [
      "1 63276C 25053M   26057.16368056 -.00010524  00000+0 -81791-4 0   572",
      "2 63276  43.0004 182.0464 0001800 270.1102  65.6480 15.70832717    15"
    ]
  },
  "63278": {
    "noradId": "63278",
    "tle": [
      "1 63278C 25053P   26057.13173611  .00011682  00000+0  42329-3 0   579",
      "2 63278  43.0020 307.3104 0001404 267.6233  63.9518 15.27554551    16"
    ]
  },
  "63279": {
    "noradId": "63279",
    "tle": [
      "1 63279C 25053Q   26057.13590278  .00023831  00000+0  86300-3 0   578",
      "2 63279  43.0014 303.3851 0001438 268.4029 267.3685 15.27560447    10"
    ]
  },
  "63280": {
    "noradId": "63280",
    "tle": [
      "1 63280C 25053R   26057.13520833 -.00002674  00000+0 -96870-4 0   578",
      "2 63280  43.0010 306.8156 0001225 266.6929 282.0850 15.27574002    17"
    ]
  },
  "63281": {
    "noradId": "63281",
    "tle": [
      "1 63281C 25053S   26057.13104167  .00009472  00000+0  34317-3 0   575",
      "2 63281  43.0038 306.5416 0001374 268.4279  17.6939 15.27559767    18"
    ]
  },
  "63282": {
    "noradId": "63282",
    "tle": [
      "1 63282C 25053T   26057.13173611  .00017077  00000+0  61867-3 0   576",
      "2 63282  43.0028 307.3412 0001442 263.0768  47.2990 15.27553549    11"
    ]
  },
  "63283": {
    "noradId": "63283",
    "tle": [
      "1 63283C 25053U   26057.13034722  .00022875  00000+0  82860-3 0   574",
      "2 63283  43.0045 306.6475 0001390 267.6386 332.1913 15.27552863    19"
    ]
  },
  "63284": {
    "noradId": "63284",
    "tle": [
      "1 63284C 25053V   26057.13312500  .00021226  00000+0  76888-3 0   570",
      "2 63284  43.0026 299.2530 0001350 276.2068 164.6442 15.27554365    11"
    ]
  },
  "63285": {
    "noradId": "63285",
    "tle": [
      "1 63285C 25053W   26057.13520833  .00018832  00000+0  68217-3 0   577",
      "2 63285  43.0012 306.9113 0001412 266.4368 239.9130 15.27555739    19"
    ]
  },
  "63286": {
    "noradId": "63286",
    "tle": [
      "1 63286C 25053X   26057.12895833 -.00001332  00000+0 -48239-4 0   574",
      "2 63286  43.0011 307.2418 0001446 263.0942  88.5476 15.27572959    13"
    ]
  },
  "63287": {
    "noradId": "63287",
    "tle": [
      "1 63287C 25053Y   26057.13381944  .00019598  00000+0  70999-3 0   577",
      "2 63287  43.0022 306.7190 0001518 266.5045 317.0953 15.27552307    14"
    ]
  },
  "63307": {
    "noradId": "63307",
    "tle": [
      "1 63307C 25057A   26057.16229167 -.00014059  00000+0 -10920-3 0   572",
      "2 63307  43.0006 333.6900 0001298 264.0739 263.9558 15.70851016    12"
    ]
  },
  "63308": {
    "noradId": "63308",
    "tle": [
      "1 63308C 25057B   26057.16506944  .00010262  00000+0  79794-4 0   579",
      "2 63308  43.0004 334.0460 0001392 284.9731 108.5670 15.70801051    18"
    ]
  },
  "63309": {
    "noradId": "63309",
    "tle": [
      "1 63309C 25057C   26057.16437500 -.00022901  00000+0 -17795-3 0   578",
      "2 63309  43.0006 333.8258 0001709 251.3839 228.3353 15.70850205    16"
    ]
  },
  "63310": {
    "noradId": "63310",
    "tle": [
      "1 63310C 25057D   26057.16437500 -.00010023  00000+0 -77860-4 0   572",
      "2 63310  43.0006 334.3490 0001644 271.5362 357.7484 15.70843807    17"
    ]
  },
  "63311": {
    "noradId": "63311",
    "tle": [
      "1 63311C 25057E   26057.16715278 -.00018989  00000+0 -14755-3 0   576",
      "2 63311  43.0006 334.4064 0001552 266.9582 347.9999 15.70847081    16"
    ]
  }
}